{"fetched_at":"2026-07-14T06:34:52.706Z","source":"https://celestrak.org/NORAD/elements/gp.php?NAME=KINEIS&FORMAT=JSON","constellation":"kineis","records":[{"OBJECT_NAME":"KINEIS-1B","OBJECT_ID":"2024-114A","EPOCH":"2026-07-13T19:31:13.155744","CLASSIFICATION_TYPE":"U","MEAN_MOTION":14.8066584,"ECCENTRICITY":0.0003057,"INCLINATION":97.9828,"RA_OF_ASC_NODE":218.8716,"ARG_OF_PERICENTER":41.6433,"MEAN_ANOMALY":318.5012,"EPHEMERIS_TYPE":0,"NORAD_CAT_ID":60079,"ELEMENT_SET_NO":999,"REV_AT_EPOCH":11134,"BSTAR":0.000056145,"MEAN_MOTION_DOT":0.00000379,"MEAN_MOTION_DDOT":0},{"OBJECT_NAME":"KINEIS-1C","OBJECT_ID":"2024-114C","EPOCH":"2026-07-13T20:19:39.211104","CLASSIFICATION_TYPE":"U","MEAN_MOTION":14.80667667,"ECCENTRICITY":0.0002564,"INCLINATION":97.9841,"RA_OF_ASC_NODE":218.7601,"ARG_OF_PERICENTER":96.5566,"MEAN_ANOMALY":263.5938,"EPHEMERIS_TYPE":0,"NORAD_CAT_ID":60081,"ELEMENT_SET_NO":999,"REV_AT_EPOCH":11132,"BSTAR":0.000054005,"MEAN_MOTION_DOT":0.00000362,"MEAN_MOTION_DDOT":0},{"OBJECT_NAME":"KINEIS-1D","OBJECT_ID":"2024-114D","EPOCH":"2026-07-13T19:34:19.147296","CLASSIFICATION_TYPE":"U","MEAN_MOTION":14.76361527,"ECCENTRICITY":0.0002942,"INCLINATION":97.9878,"RA_OF_ASC_NODE":214.6605,"ARG_OF_PERICENTER":100.4176,"MEAN_ANOMALY":259.7365,"EPHEMERIS_TYPE":0,"NORAD_CAT_ID":60082,"ELEMENT_SET_NO":999,"REV_AT_EPOCH":11105,"BSTAR":0.00005174,"MEAN_MOTION_DOT":0.00000308,"MEAN_MOTION_DDOT":0},{"OBJECT_NAME":"KINEIS-1E","OBJECT_ID":"2024-114E","EPOCH":"2026-07-13T20:45:20.879136","CLASSIFICATION_TYPE":"U","MEAN_MOTION":14.8069294,"ECCENTRICITY":0.0004092,"INCLINATION":97.8944,"RA_OF_ASC_NODE":217.862,"ARG_OF_PERICENTER":112.4841,"MEAN_ANOMALY":247.6805,"EPHEMERIS_TYPE":0,"NORAD_CAT_ID":60083,"ELEMENT_SET_NO":999,"REV_AT_EPOCH":11133,"BSTAR":0.00006638,"MEAN_MOTION_DOT":0.00000459,"MEAN_MOTION_DDOT":0},{"OBJECT_NAME":"KINEIS-1A","OBJECT_ID":"2024-114F","EPOCH":"2026-07-13T19:56:10.588704","CLASSIFICATION_TYPE":"U","MEAN_MOTION":14.80681222,"ECCENTRICITY":0.0005456,"INCLINATION":97.8917,"RA_OF_ASC_NODE":217.9226,"ARG_OF_PERICENTER":65.7705,"MEAN_ANOMALY":294.4077,"EPHEMERIS_TYPE":0,"NORAD_CAT_ID":60084,"ELEMENT_SET_NO":999,"REV_AT_EPOCH":11133,"BSTAR":0.000059551,"MEAN_MOTION_DOT":0.00000406,"MEAN_MOTION_DDOT":0},{"OBJECT_NAME":"KINEIS-3C","OBJECT_ID":"2024-172A","EPOCH":"2026-07-13T18:45:18.094752","CLASSIFICATION_TYPE":"U","MEAN_MOTION":14.72286764,"ECCENTRICITY":0.0002715,"INCLINATION":98.0437,"RA_OF_ASC_NODE":284.3982,"ARG_OF_PERICENTER":83.097,"MEAN_ANOMALY":277.0546,"EPHEMERIS_TYPE":0,"NORAD_CAT_ID":61220,"ELEMENT_SET_NO":999,"REV_AT_EPOCH":9698,"BSTAR":0.00013561,"MEAN_MOTION_DOT":0.00000807,"MEAN_MOTION_DDOT":0},{"OBJECT_NAME":"KINEIS-3D","OBJECT_ID":"2024-172B","EPOCH":"2026-07-13T18:35:36.614112","CLASSIFICATION_TYPE":"U","MEAN_MOTION":14.72284231,"ECCENTRICITY":0.0002525,"INCLINATION":98.0432,"RA_OF_ASC_NODE":284.4023,"ARG_OF_PERICENTER":85.1713,"MEAN_ANOMALY":274.9782,"EPHEMERIS_TYPE":0,"NORAD_CAT_ID":61221,"ELEMENT_SET_NO":999,"REV_AT_EPOCH":9726,"BSTAR":0.00015069,"MEAN_MOTION_DOT":0.00000902,"MEAN_MOTION_DDOT":0},{"OBJECT_NAME":"KINEIS-3E","OBJECT_ID":"2024-172C","EPOCH":"2026-07-13T19:48:51.833088","CLASSIFICATION_TYPE":"U","MEAN_MOTION":14.72274073,"ECCENTRICITY":0.0002705,"INCLINATION":98.0398,"RA_OF_ASC_NODE":284.4347,"ARG_OF_PERICENTER":91.5666,"MEAN_ANOMALY":268.5851,"EPHEMERIS_TYPE":0,"NORAD_CAT_ID":61222,"ELEMENT_SET_NO":999,"REV_AT_EPOCH":9727,"BSTAR":0.00015131,"MEAN_MOTION_DOT":0.00000906,"MEAN_MOTION_DDOT":0},{"OBJECT_NAME":"KINEIS-3A","OBJECT_ID":"2024-172D","EPOCH":"2026-07-13T19:25:04.353024","CLASSIFICATION_TYPE":"U","MEAN_MOTION":14.72307075,"ECCENTRICITY":0.0002261,"INCLINATION":98.0426,"RA_OF_ASC_NODE":284.5158,"ARG_OF_PERICENTER":45.0332,"MEAN_ANOMALY":315.1059,"EPHEMERIS_TYPE":0,"NORAD_CAT_ID":61223,"ELEMENT_SET_NO":999,"REV_AT_EPOCH":9669,"BSTAR":0.00014941,"MEAN_MOTION_DOT":0.00000895,"MEAN_MOTION_DDOT":0},{"OBJECT_NAME":"KINEIS-3B","OBJECT_ID":"2024-172E","EPOCH":"2026-07-13T19:00:02.143008","CLASSIFICATION_TYPE":"U","MEAN_MOTION":14.72293252,"ECCENTRICITY":0.0001714,"INCLINATION":98.0419,"RA_OF_ASC_NODE":284.521,"ARG_OF_PERICENTER":31.8169,"MEAN_ANOMALY":328.3142,"EPHEMERIS_TYPE":0,"NORAD_CAT_ID":61224,"ELEMENT_SET_NO":999,"REV_AT_EPOCH":9726,"BSTAR":0.00014824,"MEAN_MOTION_DOT":0.00000887,"MEAN_MOTION_DDOT":0},{"OBJECT_NAME":"KINEIS-5C","OBJECT_ID":"2024-219A","EPOCH":"2026-07-13T20:05:05.878176","CLASSIFICATION_TYPE":"U","MEAN_MOTION":14.7231369,"ECCENTRICITY":0.0004046,"INCLINATION":97.9065,"RA_OF_ASC_NODE":352.9524,"ARG_OF_PERICENTER":177.1916,"MEAN_ANOMALY":182.9315,"EPHEMERIS_TYPE":0,"NORAD_CAT_ID":62081,"ELEMENT_SET_NO":999,"REV_AT_EPOCH":8767,"BSTAR":0.00005654,"MEAN_MOTION_DOT":0.00000309,"MEAN_MOTION_DDOT":0},{"OBJECT_NAME":"KINEIS-5D","OBJECT_ID":"2024-219B","EPOCH":"2026-07-13T20:43:30.846144","CLASSIFICATION_TYPE":"U","MEAN_MOTION":14.72492197,"ECCENTRICITY":0.0005174,"INCLINATION":97.9178,"RA_OF_ASC_NODE":353.044,"ARG_OF_PERICENTER":171.4672,"MEAN_ANOMALY":188.6625,"EPHEMERIS_TYPE":0,"NORAD_CAT_ID":62082,"ELEMENT_SET_NO":999,"REV_AT_EPOCH":8768,"BSTAR":0.000079952,"MEAN_MOTION_DOT":0.00000459,"MEAN_MOTION_DDOT":0},{"OBJECT_NAME":"KINEIS-5E","OBJECT_ID":"2024-219C","EPOCH":"2026-07-13T21:08:55.866624","CLASSIFICATION_TYPE":"U","MEAN_MOTION":14.7229836,"ECCENTRICITY":0.0006672,"INCLINATION":97.9022,"RA_OF_ASC_NODE":353.0905,"ARG_OF_PERICENTER":168.4523,"MEAN_ANOMALY":191.6839,"EPHEMERIS_TYPE":0,"NORAD_CAT_ID":62083,"ELEMENT_SET_NO":999,"REV_AT_EPOCH":8769,"BSTAR":0.000054602,"MEAN_MOTION_DOT":0.00000297,"MEAN_MOTION_DDOT":0},{"OBJECT_NAME":"KINEIS-5A","OBJECT_ID":"2024-219D","EPOCH":"2026-07-13T20:37:29.244864","CLASSIFICATION_TYPE":"U","MEAN_MOTION":14.72252628,"ECCENTRICITY":0.0003657,"INCLINATION":97.8964,"RA_OF_ASC_NODE":353.35,"ARG_OF_PERICENTER":204.6633,"MEAN_ANOMALY":155.44,"EPHEMERIS_TYPE":0,"NORAD_CAT_ID":62084,"ELEMENT_SET_NO":999,"REV_AT_EPOCH":8769,"BSTAR":0.0001183,"MEAN_MOTION_DOT":0.00000699,"MEAN_MOTION_DDOT":0},{"OBJECT_NAME":"KINEIS-5B","OBJECT_ID":"2024-219E","EPOCH":"2026-07-13T20:24:28.320192","CLASSIFICATION_TYPE":"U","MEAN_MOTION":14.78383828,"ECCENTRICITY":0.0002404,"INCLINATION":98.0088,"RA_OF_ASC_NODE":358.5336,"ARG_OF_PERICENTER":148.1225,"MEAN_ANOMALY":212.0131,"EPHEMERIS_TYPE":0,"NORAD_CAT_ID":62085,"ELEMENT_SET_NO":999,"REV_AT_EPOCH":8794,"BSTAR":0.000079605,"MEAN_MOTION_DOT":0.00000528,"MEAN_MOTION_DDOT":0},{"OBJECT_NAME":"KINEIS-2C","OBJECT_ID":"2025-028B","EPOCH":"2026-07-13T17:43:09.070752","CLASSIFICATION_TYPE":"U","MEAN_MOTION":14.73426662,"ECCENTRICITY":0.0004146,"INCLINATION":98.1231,"RA_OF_ASC_NODE":249.1602,"ARG_OF_PERICENTER":163.1465,"MEAN_ANOMALY":196.9881,"EPHEMERIS_TYPE":0,"NORAD_CAT_ID":62929,"ELEMENT_SET_NO":999,"REV_AT_EPOCH":7652,"BSTAR":0.00012826,"MEAN_MOTION_DOT":0.00000781,"MEAN_MOTION_DDOT":0}]}
