KINEIS-1B               
1 60079U 24114A   26194.81334671  .00000379  00000+0  56145-4 0  9992
2 60079  97.9828 218.8716 0003057  41.6433 318.5012 14.80665840111348
KINEIS-1C               
1 60081U 24114C   26194.84698161  .00000362  00000+0  54005-4 0  9990
2 60081  97.9841 218.7601 0002564  96.5566 263.5938 14.80667667111329
KINEIS-1D               
1 60082U 24114D   26194.81549939  .00000308  00000+0  51740-4 0  9999
2 60082  97.9878 214.6605 0002942 100.4176 259.7365 14.76361527111053
KINEIS-1E               
1 60083U 24114E   26194.86482499  .00000459  00000+0  66380-4 0  9995
2 60083  97.8944 217.8620 0004092 112.4841 247.6805 14.80692940111336
KINEIS-1A               
1 60084U 24114F   26194.83067811  .00000406  00000+0  59551-4 0  9994
2 60084  97.8917 217.9226 0005456  65.7705 294.4077 14.80681222111336
KINEIS-3C               
1 61220U 24172A   26194.78145943  .00000807  00000+0  13561-3 0  9993
2 61220  98.0437 284.3982 0002715  83.0970 277.0546 14.72286764 96982
KINEIS-3D               
1 61221U 24172B   26194.77472933  .00000902  00000+0  15069-3 0  9996
2 61221  98.0432 284.4023 0002525  85.1713 274.9782 14.72284231 97269
KINEIS-3E               
1 61222U 24172C   26194.82559992  .00000906  00000+0  15131-3 0  9998
2 61222  98.0398 284.4347 0002705  91.5666 268.5851 14.72274073 97278
KINEIS-3A               
1 61223U 24172D   26194.80907816  .00000895  00000+0  14941-3 0  9994
2 61223  98.0426 284.5158 0002261  45.0332 315.1059 14.72307075 96696
KINEIS-3B               
1 61224U 24172E   26194.79169147  .00000887  00000+0  14824-3 0  9991
2 61224  98.0419 284.5210 0001714  31.8169 328.3142 14.72293252 97265
KINEIS-5C               
1 62081U 24219A   26194.83687359  .00000309  00000+0  56540-4 0  9991
2 62081  97.9065 352.9524 0004046 177.1916 182.9315 14.72313690 87674
KINEIS-5D               
1 62082U 24219B   26194.86355146  .00000459  00000+0  79952-4 0  9999
2 62082  97.9178 353.0440 0005174 171.4672 188.6625 14.72492197 87686
KINEIS-5E               
1 62083U 24219C   26194.88120216  .00000297  00000+0  54602-4 0  9995
2 62083  97.9022 353.0905 0006672 168.4523 191.6839 14.72298360 87694
KINEIS-5A               
1 62084U 24219D   26194.85936626  .00000699  00000+0  11830-3 0  9994
2 62084  97.8964 353.3500 0003657 204.6633 155.4400 14.72252628 87697
KINEIS-5B               
1 62085U 24219E   26194.85032778  .00000528  00000+0  79605-4 0  9996
2 62085  98.0088 358.5336 0002404 148.1225 212.0131 14.78383828 87942
KINEIS-2C               
1 62929U 25028B   26194.73829943  .00000781  00000+0  12826-3 0  9999
2 62929  98.1231 249.1602 0004146 163.1465 196.9881 14.73426662 76522
